GLOBALSTAR M057         
1 25943U 99058A   24266.68745378 -.00000034  00000+0  53688-3 0  9992
2 25943  52.0012  27.3480 0002637 169.6215 190.4690 12.24797567134150
GLOBALSTAR M059         
1 25944U 99058B   24267.22652781 -.00000077  00000+0  11379-3 0  9997
2 25944  52.0004 209.3798 0000580  73.2624  74.3801 11.99965776130740
GLOBALSTAR M056         
1 25945U 99058C   24266.93952795 -.00000016  00000+0  83191-3 0  9997
2 25945  51.9947 218.9763 0001252  18.4015  23.1894 12.04778450130411
GLOBALSTAR M031         
1 25946U 99058D   24266.94786676  .00000040  00000+0  13212-2 0  9994
2 25946  51.9944 127.2829 0001840  22.8651  61.9165 12.16017375132038
GLOBALSTAR M039         
1 25961U 99062A   24267.56310614 -.00000072  00000+0  17535-3 0  9999
2 25961  51.9875   0.7880 0003344 116.5721 243.5489 12.62303395146572
GLOBALSTAR M034         
1 25962U 99062B   24266.93331323 -.00000038  00000+0  67307-3 0  9994
2 25962  51.9907 346.0884 0013686 255.4569 276.5115 11.79432723106856
GLOBALSTAR M029         
1 25963U 99062C   24266.96857991 -.00000087  00000+0 -10728-4 0  9993
2 25963  51.9784  98.3434 0002117 332.2992 179.2201 11.99883180137093
GLOBALSTAR M061         
1 25964U 99062D   24266.97335234 -.00000007  00000+0  12075-2 0  9992
2 25964  51.9783 166.4747 0005580 176.8013 197.3968 11.76766129 89725
